[
    {
        "CCSDS_OMM_VERS": "3.0",
        "COMMENT": "GENERATED VIA SPACE-TRACK.ORG API",
        "CREATION_DATE": "2025-03-02T18:08:23",
        "ORIGINATOR": "18 SPCS",
        "OBJECT_NAME": "GALILEO-FM3",
        "OBJECT_ID": "2012-055A",
        "CENTER_NAME": "EARTH",
        "REF_FRAME": "TEME",
        "TIME_SYSTEM": "UTC",
        "MEAN_ELEMENT_THEORY": "SGP4",
        "EPOCH": "2025-03-02T06:34:09.136704",
        "MEAN_MOTION": "1.70473421",
        "ECCENTRICITY": "0.00060520",
        "INCLINATION": "55.5293",
        "RA_OF_ASC_NODE": "114.5086",
        "ARG_OF_PERICENTER": "272.8521",
        "MEAN_ANOMALY": "87.1685",
        "EPHEMERIS_TYPE": "0",
        "CLASSIFICATION_TYPE": "U",
        "NORAD_CAT_ID": "38857",
        "ELEMENT_SET_NO": "999",
        "REV_AT_EPOCH": "7696",
        "BSTAR": "0.00000000000000",
        "MEAN_MOTION_DOT": "0.00000025",
        "MEAN_MOTION_DDOT": "0.0000000000000",
        "SEMIMAJOR_AXIS": "29600.387",
        "PERIOD": "844.706",
        "APOAPSIS": "23240.166",
        "PERIAPSIS": "23204.338",
        "OBJECT_TYPE": "PAYLOAD",
        "RCS_SIZE": "LARGE",
        "COUNTRY_CODE": "ESA",
        "LAUNCH_DATE": "2012-10-12",
        "SITE": "FRGUI",
        "DECAY_DATE": null,
        "FILE": "4657142",
        "GP_ID": "282084204",
        "TLE_LINE0": "0 GALILEO-FM3",
        "TLE_LINE1": "1 38857U 12055A   25061.27371686  .00000025  00000-0  00000-0 0  9995",
        "TLE_LINE2": "2 38857  55.5293 114.5086 0006052 272.8521  87.1685  1.70473421 76969"
    }
]